SAR-LUPE 2              
1 31797U 07030A   26166.60362339  .00026445  00000+0  47311-3 0  9999
2 31797  98.1047 270.8392 0004999 149.2143 210.9400 15.49972377 56690
SAPPHIRE                
1 39088U 13009C   26166.62813084  .00000086  00000+0  45034-4 0  9997
2 39088  98.4259 346.1209 0010040 251.7875 108.2218 14.35240174696354
PRAETORIAN SDA_602      
1 65565U 25203A   26166.57851439  .00000054  00000+0  37978-4 0  9998
2 65565  81.3031  12.2590 0005690 188.4047 171.7016 13.84342610 38473
PRAETORIAN SDA_603      
1 65566U 25203B   26166.60469342  .00000233  00000+0  19936-3 0  9993
2 65566  81.3035  12.1502 0009271 191.7906 168.3035 13.83905455 38485
PRAETORIAN SDA_604      
1 65567U 25203C   26166.55108595  .00000054  00000+0  38796-4 0  9995
2 65567  81.3053  12.6097 0005182 196.1623 163.9369 13.83047312 38459
PRAETORIAN SDA_605      
1 65568U 25203D   26166.58919907  .00000046  00000+0  31225-4 0  9997
2 65568  81.3019  12.2391 0008004 187.3432 172.7608 13.83434049 38474
PRAETORIAN SDA_606      
1 65569U 25203E   26166.57171497  .00000061  00000+0  44280-4 0  9993
2 65569  81.3055  12.4763 0005624 185.4659 174.6437 13.83407235 38462
PRAETORIAN SDA_607      
1 65570U 25203F   26166.58077156  .00000193  00000+0  16264-3 0  9999
2 65570  81.3038  12.1340 0008609 191.8955 168.2000 13.84284491 38484
PRAETORIAN SDA_608      
1 65571U 25203G   26166.55762775  .00000050  00000+0  34225-4 0  9995
2 65571  81.3007  12.3162 0005689 195.3709 164.7275 13.83816629 38462
PRAETORIAN SDA_609      
1 65572U 25203H   26166.56299865  .00000190  00000+0  16019-3 0  9997
2 65572  81.3050  12.2944 0006574 189.9908 170.1119 13.84212264 38477
PRAETORIAN SDA_610      
1 65573U 25203J   26166.60972572  .00000045  00000+0  30053-4 0  9990
2 65573  81.3007  12.2260 0006354 192.8312 167.2683 13.83851732 38470
PRAETORIAN SDA_611      
1 65574U 25203K   26166.60988821  .00000498  00000+0  44302-3 0  9998
2 65574  81.3007  12.3900 0005302 198.6970 161.3992 13.83309568 38461
PRAETORIAN SDA_612      
1 65575U 25203L   26166.60147083  .00000216  00000+0  18078-3 0  9995
2 65575  81.3027  11.9881 0009040 191.1772 168.9186 13.85038836 38498
PRAETORIAN SDA_613      
1 65576U 25203M   26166.61601421  .00000045  00000+0  30297-4 0  9996
2 65576  81.2999  12.3803 0005478 188.2262 171.8805 13.82764882 38469
PRAETORIAN SDA_614      
1 65577U 25203N   26166.59034767  .00000033  00000+0  18839-4 0  9992
2 65577  81.3014  12.0760 0006918 188.0681 172.0366 13.84777922 38490
PRAETORIAN SDA_615      
1 65578U 25203P   26166.56684100  .00000160  00000+0  13266-3 0  9991
2 65578  81.3025  12.0596 0008784 189.9120 170.1865 13.84436551 38483
PRAETORIAN SDA_616      
1 65579U 25203Q   26166.60905462  .00000224  00000+0  19359-3 0  9994
2 65579  81.3063  12.5349 0005207 196.3979 163.7009 13.83267818 38461
PRAETORIAN SDA_617      
1 65580U 25203R   26166.55818612  .00000013  00000+0  14246-5 0  9998
2 65580  81.3029  12.4134 0007185 188.9407 171.1622 13.83149812 38463
PRAETORIAN SDA_618      
1 65581U 25203S   26166.60542315  .00000223  00000+0  18776-3 0  9992
2 65581  81.3021  11.9549 0009542 192.0661 168.0269 13.84669669 38490
PRAETORIAN SDA_619      
1 65582U 25203T   26166.56808014  .00000247  00000+0  21227-3 0  9990
2 65582  81.3041  12.2849 0007952 190.0562 170.0437 13.83805197 39107
PRAETORIAN SDA_620      
1 65583U 25203U   26166.59585002  .00000250  00000+0  21614-3 0  9997
2 65583  81.3029  12.2793 0007454 185.2331 174.8748 13.83618091 38470
PRAETORIAN SDA_621      
1 65584U 25203V   26166.56984814  .00000047  00000+0  32148-4 0  9998
2 65584  81.3021  12.2218 0007263 183.0822 177.0291 13.83801029 38477
PRAETORIAN SDA_601      
1 65585U 25203W   26166.61207611  .00000617  00000+0  55232-3 0  9999
2 65585  81.3035  12.4772 0005196 199.8841 160.2114 13.83168348 38466
