OBJECT_NAME,OBJECT_ID,EPOCH,MEAN_MOTION,ECCENTRICITY,INCLINATION,RA_OF_ASC_NODE,ARG_OF_PERICENTER,MEAN_ANOMALY,EPHEMERIS_TYPE,CLASSIFICATION_TYPE,NORAD_CAT_ID,ELEMENT_SET_NO,REV_AT_EPOCH,BSTAR,MEAN_MOTION_DOT,MEAN_MOTION_DDOT
SAR-LUPE 2,2007-030A,2026-06-15T14:29:13.060896,15.49972377,.00049999,98.1047,270.8392,149.2143,210.9400,0,U,31797,999,5669,.47311035E-3,.26445E-3,0
SAPPHIRE,2013-009C,2026-06-15T15:04:30.504576,14.35240174,.001004,98.4259,346.1209,251.7875,108.2218,0,U,39088,999,69635,.4503394E-4,.86E-6,0
PRAETORIAN SDA_602,2025-203A,2026-06-15T13:53:03.643296,13.84342610,.00056901,81.3031,12.2590,188.4047,171.7016,0,U,65565,999,3847,.37978021E-4,.54E-6,0
PRAETORIAN SDA_603,2025-203B,2026-06-15T14:30:45.511488,13.83905455,.00092717,81.3035,12.1502,191.7906,168.3035,0,U,65566,999,3848,.199357E-3,.233E-5,0
PRAETORIAN SDA_604,2025-203C,2026-06-15T13:13:33.826080,13.83047312,.00051826,81.3053,12.6097,196.1623,163.9369,0,U,65567,999,3845,.38796496E-4,.54E-6,0
PRAETORIAN SDA_605,2025-203D,2026-06-15T14:08:26.799648,13.83434049,.00080045,81.3019,12.2391,187.3432,172.7608,0,U,65568,999,3847,.31225092E-4,.46E-6,0
PRAETORIAN SDA_606,2025-203E,2026-06-15T13:43:16.173408,13.83407235,.00056246,81.3055,12.4763,185.4659,174.6437,0,U,65569,999,3846,.44279779E-4,.61E-6,0
PRAETORIAN SDA_607,2025-203F,2026-06-15T13:56:18.662784,13.84284491,.00086098,81.3038,12.1340,191.8955,168.2000,0,U,65570,999,3848,.16263782E-3,.193E-5,0
PRAETORIAN SDA_608,2025-203G,2026-06-15T13:22:59.037600,13.83816629,.00056893,81.3007,12.3162,195.3709,164.7275,0,U,65571,999,3846,.34224809E-4,.5E-6,0
PRAETORIAN SDA_609,2025-203H,2026-06-15T13:30:43.083360,13.84212264,.00065742,81.3050,12.2944,189.9908,170.1119,0,U,65572,999,3847,.16019005E-3,.19E-5,0
PRAETORIAN SDA_610,2025-203J,2026-06-15T14:38:00.302208,13.83851732,.00063546,81.3007,12.2260,192.8312,167.2683,0,U,65573,999,3847,.30053162E-4,.45E-6,0
PRAETORIAN SDA_611,2025-203K,2026-06-15T14:38:14.341344,13.83309568,.00053026,81.3007,12.3900,198.6970,161.3992,0,U,65574,999,3846,.44302249E-3,.498E-5,0
PRAETORIAN SDA_612,2025-203L,2026-06-15T14:26:07.079712,13.85038836,.00090403,81.3027,11.9881,191.1772,168.9186,0,U,65575,999,3849,.18077804E-3,.216E-5,0
PRAETORIAN SDA_613,2025-203M,2026-06-15T14:47:03.627744,13.82764882,.0005478,81.2999,12.3803,188.2262,171.8805,0,U,65576,999,3846,.30296588E-4,.45E-6,0
PRAETORIAN SDA_614,2025-203N,2026-06-15T14:10:06.038688,13.84777922,.00069182,81.3014,12.0760,188.0681,172.0366,0,U,65577,999,3849,.18838509E-4,.33E-6,0
PRAETORIAN SDA_615,2025-203P,2026-06-15T13:36:15.062400,13.84436551,.00087841,81.3025,12.0596,189.9120,170.1865,0,U,65578,999,3848,.1326577E-3,.16E-5,0
PRAETORIAN SDA_616,2025-203Q,2026-06-15T14:37:02.319168,13.83267818,.00052077,81.3063,12.5349,196.3979,163.7009,0,U,65579,999,3846,.19359418E-3,.224E-5,0
PRAETORIAN SDA_617,2025-203R,2026-06-15T13:23:47.280768,13.83149812,.00071859,81.3029,12.4134,188.9407,171.1622,0,U,65580,999,3846,.1424587E-5,.13E-6,0
PRAETORIAN SDA_618,2025-203S,2026-06-15T14:31:48.560160,13.84669669,.00095422,81.3021,11.9549,192.0661,168.0269,0,U,65581,999,3849,.18775764E-3,.223E-5,0
PRAETORIAN SDA_619,2025-203T,2026-06-15T13:38:02.124096,13.83805197,.00079523,81.3041,12.2849,190.0562,170.0437,0,U,65582,999,3910,.2122741E-3,.247E-5,0
PRAETORIAN SDA_620,2025-203U,2026-06-15T14:18:01.441728,13.83618091,.00074545,81.3029,12.2793,185.2331,174.8748,0,U,65583,999,3847,.21614301E-3,.25E-5,0
PRAETORIAN SDA_621,2025-203V,2026-06-15T13:40:34.879296,13.83801029,.00072636,81.3021,12.2218,183.0822,177.0291,0,U,65584,999,3847,.32147795E-4,.47E-6,0
PRAETORIAN SDA_601,2025-203W,2026-06-15T14:41:23.375904,13.83168348,.00051964,81.3035,12.4772,199.8841,160.2114,0,U,65585,999,3846,.55231865E-3,.617E-5,0
